{
  "type": "FeatureCollection",
  "features": [
    {
      "type": "Feature",
      "properties": {
        "norad_id": 38755,
        "name": "SPOT 6",
        "group": "resource",
        "lat": 20.22326478308111,
        "lon": 56.309272949218155,
        "alt_km": 697.4161730348851,
        "timestamp": "2025-12-20T16:47:35.948327+00:00",
        "meta_object_name": "SPOT 6",
        "meta_object_id": "2012-047A",
        "meta_epoch": "2025-12-20T11:45:37.893024",
        "meta_mean_motion": 14.58539039,
        "meta_eccentricity": 0.0001342,
        "meta_inclination": 98.157,
        "meta_ra_of_asc_node": 59.1323,
        "meta_arg_of_pericenter": 79.0419,
        "meta_mean_anomaly": 281.0931,
        "meta_ephemeris_type": 0,
        "meta_classification_type": "U",
        "meta_norad_cat_id": 38755,
        "meta_element_set_no": 999,
        "meta_rev_at_epoch": 70700,
        "meta_bstar": 9.2937e-05,
        "meta_mean_motion_dot": 3.87e-06,
        "meta_mean_motion_ddot": 0,
        "tle_line1": "1 38755U 12047A   25354.49002191  .00000387  00000+0  92937-4 0  9998",
        "tle_line2": "2 38755  98.1570  59.1323 0001342  79.0419 281.0931 14.58539039707008"
      },
      "geometry": {
        "type": "Point",
        "coordinates": [
          56.309272949218155,
          20.22326478308111
        ]
      }
    },
    {
      "type": "Feature",
      "properties": {
        "norad_id": 39019,
        "name": "PLEIADES 1B",
        "group": "resource",
        "lat": -78.1390426602054,
        "lon": 110.44833898533392,
        "alt_km": 705.9734731173758,
        "timestamp": "2025-12-20T16:47:35.948337+00:00",
        "meta_object_name": "PLEIADES 1B",
        "meta_object_id": "2012-068A",
        "meta_epoch": "2025-12-20T12:13:36.236352",
        "meta_mean_motion": 14.58559789,
        "meta_eccentricity": 0.0001188,
        "meta_inclination": 98.1793,
        "meta_ra_of_asc_node": 67.0391,
        "meta_arg_of_pericenter": 84.4264,
        "meta_mean_anomaly": 275.7071,
        "meta_ephemeris_type": 0,
        "meta_classification_type": "U",
        "meta_norad_cat_id": 39019,
        "meta_element_set_no": 999,
        "meta_rev_at_epoch": 69480,
        "meta_bstar": 9.6428e-05,
        "meta_mean_motion_dot": 4.03e-06,
        "meta_mean_motion_ddot": 0,
        "tle_line1": "1 39019U 12068A   25354.50944718  .00000403  00000+0  96428-4 0  9995",
        "tle_line2": "2 39019  98.1793  67.0391 0001188  84.4264 275.7071 14.58559789694800"
      },
      "geometry": {
        "type": "Point",
        "coordinates": [
          110.44833898533392,
          -78.1390426602054
        ]
      }
    },
    {
      "type": "Feature",
      "properties": {
        "norad_id": 39030,
        "name": "GOKTURK 2",
        "group": "resource",
        "lat": -71.14621062642324,
        "lon": -7.3433768519808185,
        "alt_km": 652.2187973883638,
        "timestamp": "2025-12-20T16:47:35.948347+00:00",
        "meta_object_name": "GOKTURK 2",
        "meta_object_id": "2012-073A",
        "meta_epoch": "2025-12-20T12:23:44.934720",
        "meta_mean_motion": 14.75299966,
        "meta_eccentricity": 0.0001272,
        "meta_inclination": 97.6887,
        "meta_ra_of_asc_node": 195.7872,
        "meta_arg_of_pericenter": 109.6874,
        "meta_mean_anomaly": 250.4473,
        "meta_ephemeris_type": 0,
        "meta_classification_type": "U",
        "meta_norad_cat_id": 39030,
        "meta_element_set_no": 999,
        "meta_rev_at_epoch": 69816,
        "meta_bstar": 2.9576e-05,
        "meta_mean_motion_dot": 1.53e-06,
        "meta_mean_motion_ddot": 0,
        "tle_line1": "1 39030U 12073A   25354.51649230  .00000153  00000+0  29576-4 0  9998",
        "tle_line2": "2 39030  97.6887 195.7872 0001272 109.6874 250.4473 14.75299966698161"
      },
      "geometry": {
        "type": "Point",
        "coordinates": [
          -7.3433768519808185,
          -71.14621062642324
        ]
      }
    },
    {
      "type": "Feature",
      "properties": {
        "norad_id": 39084,
        "name": "LANDSAT 8",
        "group": "resource",
        "lat": 46.679907929462395,
        "lon": 53.85274883087309,
        "alt_km": 697.8507915818973,
        "timestamp": "2025-12-20T16:47:35.948357+00:00",
        "meta_object_name": "LANDSAT 8",
        "meta_object_id": "2013-008A",
        "meta_epoch": "2025-12-20T11:37:57.833760",
        "meta_mean_motion": 14.57109885,
        "meta_eccentricity": 0.0001086,
        "meta_inclination": 98.2063,
        "meta_ra_of_asc_node": 62.4435,
        "meta_arg_of_pericenter": 90.7972,
        "meta_mean_anomaly": 269.3351,
        "meta_ephemeris_type": 0,
        "meta_classification_type": "U",
        "meta_norad_cat_id": 39084,
        "meta_element_set_no": 999,
        "meta_rev_at_epoch": 67187,
        "meta_bstar": 7.7058e-05,
        "meta_mean_motion_dot": 3.02e-06,
        "meta_mean_motion_ddot": 0,
        "tle_line1": "1 39084U 13008A   25354.48469715  .00000302  00000+0  77058-4 0  9994",
        "tle_line2": "2 39084  98.2063  62.4435 0001086  90.7972 269.3351 14.57109885671873"
      },
      "geometry": {
        "type": "Point",
        "coordinates": [
          53.85274883087309,
          46.679907929462395
        ]
      }
    },
    {
      "type": "Feature",
      "properties": {
        "norad_id": 39086,
        "name": "SARAL",
        "group": "resource",
        "lat": 55.311986849297774,
        "lon": 165.97178522258204,
        "alt_km": 775.5399930095791,
        "timestamp": "2025-12-20T16:47:35.948367+00:00",
        "meta_object_name": "SARAL",
        "meta_object_id": "2013-009A",
        "meta_epoch": "2025-12-20T11:30:12.956832",
        "meta_mean_motion": 14.32759503,
        "meta_eccentricity": 0.0002958,
        "meta_inclination": 98.5502,
        "meta_ra_of_asc_node": 178.3087,
        "meta_arg_of_pericenter": 94.0082,
        "meta_mean_anomaly": 266.144,
        "meta_ephemeris_type": 0,
        "meta_classification_type": "U",
        "meta_norad_cat_id": 39086,
        "meta_element_set_no": 999,
        "meta_rev_at_epoch": 67001,
        "meta_bstar": 4.5792e-05,
        "meta_mean_motion_dot": 8.1e-07,
        "meta_mean_motion_ddot": 0,
        "tle_line1": "1 39086U 13009A   25354.47931663  .00000081  00000+0  45792-4 0  9996",
        "tle_line2": "2 39086  98.5502 178.3087 0002958  94.0082 266.1440 14.32759503670014"
      },
      "geometry": {
        "type": "Point",
        "coordinates": [
          165.97178522258204,
          55.311986849297774
        ]
      }
    },
    {
      "type": "Feature",
      "properties": {
        "norad_id": 39150,
        "name": "GAOFEN-1",
        "group": "resource",
        "lat": 5.7778371968970355,
        "lon": 64.41037580641287,
        "alt_km": 647.624262310831,
        "timestamp": "2025-12-20T16:47:35.948377+00:00",
        "meta_object_name": "GAOFEN-1",
        "meta_object_id": "2013-018A",
        "meta_epoch": "2025-12-20T11:53:15.158976",
        "meta_mean_motion": 14.76493019,
        "meta_eccentricity": 0.0018375,
        "meta_inclination": 97.9325,
        "meta_ra_of_asc_node": 65.018,
        "meta_arg_of_pericenter": 119.4115,
        "meta_mean_anomaly": 240.8932,
        "meta_ephemeris_type": 0,
        "meta_classification_type": "U",
        "meta_norad_cat_id": 39150,
        "meta_element_set_no": 999,
        "meta_rev_at_epoch": 68187,
        "meta_bstar": 0.00011126,
        "meta_mean_motion_dot": 7.26e-06,
        "meta_mean_motion_ddot": 0,
        "tle_line1": "1 39150U 13018A   25354.49531434  .00000726  00000+0  11126-3 0  9991",
        "tle_line2": "2 39150  97.9325  65.0180 0018375 119.4115 240.8932 14.76493019681873"
      },
      "geometry": {
        "type": "Point",
        "coordinates": [
          64.41037580641287,
          5.7778371968970355
        ]
      }
    },
    {
      "type": "Feature",
      "properties": {
        "norad_id": 39160,
        "name": "VNREDSAT 1",
        "group": "resource",
        "lat": 79.61123538733791,
        "lon": -80.75284526453282,
        "alt_km": 669.0811891417807,
        "timestamp": "2025-12-20T16:47:35.948387+00:00",
        "meta_object_name": "VNREDSAT 1",
        "meta_object_id": "2013-021B",
        "meta_epoch": "2025-12-20T11:26:08.687616",
        "meta_mean_motion": 14.64934829,
        "meta_eccentricity": 0.000122,
        "meta_inclination": 97.937,
        "meta_ra_of_asc_node": 49.4808,
        "meta_arg_of_pericenter": 81.5401,
        "meta_mean_anomaly": 278.5941,
        "meta_ephemeris_type": 0,
        "meta_classification_type": "U",
        "meta_norad_cat_id": 39160,
        "meta_element_set_no": 999,
        "meta_rev_at_epoch": 67412,
        "meta_bstar": 0.00016121,
        "meta_mean_motion_dot": 8.17e-06,
        "meta_mean_motion_ddot": 0,
        "tle_line1": "1 39160U 13021B   25354.47648944  .00000817  00000+0  16121-3 0  9990",
        "tle_line2": "2 39160  97.9370  49.4808 0001220  81.5401 278.5941 14.64934829674129"
      },
      "geometry": {
        "type": "Point",
        "coordinates": [
          -80.75284526453282,
          79.61123538733791
        ]
      }
    }
  ]
}